IRIDIUM 57              
1 25273U 98019B   24284.87176107  .00004101  00000+0  14202-2 0  9999
2 25273  86.3933 249.6310 0002443  89.5866 270.5610 14.35480793389019
IRIDIUM 63              
1 25286U 98021B   24284.77981960  .00002201  00000+0  75019-3 0  9999
2 25286  86.4054 186.6447 0002367  78.7162 281.4301 14.36083758388044
IRIDIUM 69              
1 25319U 98026A   24284.85449798  .00005931  00000+0  18624-2 0  9999
2 25319  86.4042 200.6313 0004440 103.6031 256.5663 14.40390291387168
IRIDIUM 71              
1 25320U 98026B   24284.83000966  .00004206  00000+0  13121-2 0  9990
2 25320  86.4046 195.3860 0002747 132.5989 227.5443 14.40665056387687
IRIDIUM 73              
1 25344U 98032C   24284.90218295  .00005212  00000+0  13134-2 0  9999
2 25344  86.4449 152.6426 0002813  90.5336 269.6192 14.50995664394708
IRIDIUM 82              
1 25467U 98051A   24284.89670430  .00077211  00000+0  33492-2 0  9994
2 25467  86.3741 230.6299 0117095 151.2637 209.5125 15.15973858385983
